COSMOS 2433 (720)       
1 32275U 07052A   24302.95763519 -.00000044  00000+0  00000+0 0  9996
2 32275  65.8812 335.9267 0005745 243.6091 116.3989  2.13104208132354
COSMOS 2432 (719)       
1 32276U 07052B   24303.49256765 -.00000043  00000+0  00000+0 0  9996
2 32276  65.8961 336.0253 0010533 308.8196  47.3650  2.13103285132383
COSMOS 2434 (721)       
1 32393U 07065A   24301.45885831 -.00000034  00000+0  00000+0 0  9996
2 32393  64.3168 212.0965 0002701  66.4277 115.8730  2.13101348131033
COSMOS 2436 (723)       
1 32395U 07065C   24301.75654184 -.00000031  00000+0  00000+0 0  9993
2 32395  64.3254 212.1523 0016941   2.1669 183.3518  2.13100106130994
COSMOS 2456 (730)       
1 36111U 09070A   24303.13660769  .00000037  00000+0  00000+0 0  9996
2 36111  64.6785  91.3616 0001406 319.4178 224.3839  2.13103760115720
COSMOS 2457 (733)       
1 36112U 09070B   24302.93791119  .00000038  00000+0  00000+0 0  9999
2 36112  64.6630  91.2243 0006216 146.9693  17.2998  2.13101198115766
COSMOS 2460 (732)       
1 36402U 10007C   24301.79146773 -.00000045  00000+0  00000+0 0  9995
2 36402  65.7353 334.6081 0002779 249.3832 108.9792  2.13106354114082
COSMOS 2476 (744)       
1 37867U 11064A   24303.57138339  .00000039  00000+0  00000+0 0  9994
2 37867  64.9492  93.0317 0022298 230.5311 198.5683  2.13101630101074
COSMOS 2477 (745)       
1 37868U 11064B   24303.25049480  .00000041  00000+0  00000+0 0  9991
2 37868  64.9561  93.1162 0019453 230.6867 131.0299  2.13103066101066
COSMOS 2475 (743)       
1 37869U 11064C   24301.00309534  .00000054  00000+0  00000+0 0  9996
2 37869  64.9619  93.2085 0023699 247.5298 147.8780  2.13101782101027
COSMOS 2485 (747)       
1 39155U 13019A   24303.42313963  .00000042  00000+0  00000+0 0  9994
2 39155  65.1056  93.6490 0022749 226.6224 133.1895  2.13101788 89588
COSMOS 2492 (754)       
1 39620U 14012A   24303.37834806 -.00000041  00000+0  00000+0 0  9993
2 39620  65.6155 334.1123 0013604 308.6548  51.2897  2.13103318 82548
COSMOS 2500 (755)       
1 40001U 14032A   24303.08669646 -.00000042  00000+0  00000+0 0  9997
2 40001  65.5526 333.9168 0008939 215.7427 144.2629  2.13106057 80759
COSMOS 2501 (702K)      
1 40315U 14075A   24302.87210922 -.00000017  00000+0  00000+0 0  9999
2 40315  63.6175 211.0326 0019731 207.4654 152.4670  2.13101450 77148
COSMOS 2514 (751)       
1 41330U 16008A   24303.32427349 -.00000041  00000+0  00000+0 0  9996
2 41330  65.3462 333.3842 0013009 218.2459 141.7266  2.13102725 67923
COSMOS 2522 (752)       
1 42939U 17055A   24302.22553644 -.00000027  00000+0  00000+0 0  9995
2 42939  64.0788 212.2222 0007600 237.0145 122.9447  2.13102006 55251
COSMOS 2527 (756)       
1 43508U 18053A   24302.65422345  .00000048  00000+0  00000+0 0  9999
2 43508  65.2648  93.8545 0007886 214.5658 145.3872  2.13102341 49568
COSMOS 2529 (757)       
1 43687U 18086A   24303.22215539 -.00000014  00000+0  00000+0 0  9996
2 43687  64.2944 212.7368 0008915 260.8665  99.0676  2.13102077 46587
COSMOS 2534 (758)       
1 44299U 19030A   24302.34979858 -.00000026  00000+0  00000+0 0  9992
2 44299  64.3677 212.7323 0011084 284.0556 260.8688  2.13102123 42208
COSMOS 2544 (759)       
1 44850U 19088A   24303.53689961  .00000041  00000+0  00000+0 0  9999
2 44850  65.2519  93.6594 0011963 246.4899 113.3852  2.13102116 38022
COSMOS 2545 (760)       
1 45358U 20018A   24302.32596658 -.00000045  00000+0  00000+0 0  9999
2 45358  64.6858 333.3204 0012200 245.0298 114.9070  2.13102659 35949
COSMOS 2547 (705K)      
1 46805U 20075A   24302.98177362 -.00000017  00000+0  00000+0 0  9998
2 46805  64.5970 212.3923 0007078 238.0815 121.8843  2.13102812 31200
COSMOS 2557 (706K)      
1 52984U 22075A   24301.27062267 -.00000051  00000+0  00000+0 0  9991
2 52984  64.6164 335.4750 0013773 274.7745  85.1315  2.13102244 17977
COSMOS 2559 (707K)      
1 54031U 22130A   24303.09099846 -.00000046  00000+0  00000+0 0  9997
2 54031  64.5876 335.5243 0008396 228.8263 131.1668  2.13101548 15987
COSMOS 2564 (761)       
1 54377U 22161A   24303.28126003 -.00000013  00000+0  00000+0 0  9995
2 54377  64.7384 212.5109 0009190 216.7500 143.2226  2.13102193 14939
COSMOS 2569 (703K)      
1 57517U 23114A   24302.82829917  .00000043  00000+0  00000+0 0  9998
2 57517  64.9802  92.7842 0008768 291.2889  68.6199  2.13104077  9559
